{"type": "FeatureCollection", "features": [{"type": "Feature", "geometry": {"type": "Point", "coordinates": [85.7087560762858, 27.695128703143023]}, "properties": {"rain_1h_mm": 0.1, "rain_3h_mm": 0.3, "rain_24h_mm": 2.0, "rain_72h_mm": 16.4, "current_rain_mm": 0.0, "latest_time": "2026-07-12T10:45:00", "rainfall_trigger_score": 0.0911111111111111}}, {"type": "Feature", "geometry": {"type": "Point", "coordinates": [85.79779934771437, 27.695128703143023]}, "properties": {"rain_1h_mm": 0.2, "rain_3h_mm": 0.3, "rain_24h_mm": 19.6, "rain_72h_mm": 55.2, "current_rain_mm": 0.1, "latest_time": "2026-07-12T10:45:00", "rainfall_trigger_score": 0.3066666666666667}}, {"type": "Feature", "geometry": {"type": "Point", "coordinates": [85.88684261914295, 27.695128703143023]}, "properties": {"rain_1h_mm": 0.4, "rain_3h_mm": 0.8, "rain_24h_mm": 14.0, "rain_72h_mm": 47.900000000000006, "current_rain_mm": 0.0, "latest_time": "2026-07-12T10:45:00", "rainfall_trigger_score": 0.2661111111111111}}, {"type": "Feature", "geometry": {"type": "Point", "coordinates": [85.61971280485722, 27.779838198285884]}, "properties": {"rain_1h_mm": 0.0, "rain_3h_mm": 0.0, "rain_24h_mm": 9.5, "rain_72h_mm": 48.6, "current_rain_mm": 0.0, "latest_time": "2026-07-12T10:45:00", "rainfall_trigger_score": 0.27}}, {"type": "Feature", "geometry": {"type": "Point", "coordinates": [85.7087560762858, 27.779838198285884]}, "properties": {"rain_1h_mm": 0.0, "rain_3h_mm": 0.4, "rain_24h_mm": 12.9, "rain_72h_mm": 43.2, "current_rain_mm": 0.0, "latest_time": "2026-07-12T10:45:00", "rainfall_trigger_score": 0.2399999999999999}}, {"type": "Feature", "geometry": {"type": "Point", "coordinates": [85.79779934771437, 27.779838198285884]}, "properties": {"rain_1h_mm": 0.0, "rain_3h_mm": 0.4, "rain_24h_mm": 12.9, "rain_72h_mm": 43.2, "current_rain_mm": 0.0, "latest_time": "2026-07-12T10:45:00", "rainfall_trigger_score": 0.2399999999999999}}, {"type": "Feature", "geometry": {"type": "Point", "coordinates": [85.88684261914295, 27.779838198285884]}, "properties": {"rain_1h_mm": 0.1, "rain_3h_mm": 0.3, "rain_24h_mm": 2.0, "rain_72h_mm": 16.4, "current_rain_mm": 0.0, "latest_time": "2026-07-12T10:45:00", "rainfall_trigger_score": 0.0911111111111111}}, {"type": "Feature", "geometry": {"type": "Point", "coordinates": [85.97588589057153, 27.779838198285884]}, "properties": {"rain_1h_mm": 0.0, "rain_3h_mm": 0.0, "rain_24h_mm": 19.7, "rain_72h_mm": 44.6, "current_rain_mm": 0.0, "latest_time": "2026-07-12T10:45:00", "rainfall_trigger_score": 0.2477777777777778}}, {"type": "Feature", "geometry": {"type": "Point", "coordinates": [85.53066953342864, 27.86454769342874]}, "properties": {"rain_1h_mm": 0.0, "rain_3h_mm": 0.0, "rain_24h_mm": 16.6, "rain_72h_mm": 46.7, "current_rain_mm": 0.0, "latest_time": "2026-07-12T10:45:00", "rainfall_trigger_score": 0.2594444444444445}}, {"type": "Feature", "geometry": {"type": "Point", "coordinates": [85.61971280485722, 27.86454769342874]}, "properties": {"rain_1h_mm": 0.0, "rain_3h_mm": 0.3, "rain_24h_mm": 13.6, "rain_72h_mm": 97.7, "current_rain_mm": 0.0, "latest_time": "2026-07-12T10:45:00", "rainfall_trigger_score": 0.5427777777777777}}, {"type": "Feature", "geometry": {"type": "Point", "coordinates": [85.7087560762858, 27.86454769342874]}, "properties": {"rain_1h_mm": 0.4, "rain_3h_mm": 0.8, "rain_24h_mm": 7.4, "rain_72h_mm": 136.0, "current_rain_mm": 0.0, "latest_time": "2026-07-12T10:45:00", "rainfall_trigger_score": 0.7555555555555555}}, {"type": "Feature", "geometry": {"type": "Point", "coordinates": [85.79779934771437, 27.86454769342874]}, "properties": {"rain_1h_mm": 0.4, "rain_3h_mm": 0.7000000000000001, "rain_24h_mm": 9.400000000000002, "rain_72h_mm": 47.1, "current_rain_mm": 0.1, "latest_time": "2026-07-12T10:45:00", "rainfall_trigger_score": 0.2616666666666666}}, {"type": "Feature", "geometry": {"type": "Point", "coordinates": [85.88684261914295, 27.86454769342874]}, "properties": {"rain_1h_mm": 0.0, "rain_3h_mm": 0.0, "rain_24h_mm": 19.7, "rain_72h_mm": 44.6, "current_rain_mm": 0.0, "latest_time": "2026-07-12T10:45:00", "rainfall_trigger_score": 0.2477777777777778}}, {"type": "Feature", "geometry": {"type": "Point", "coordinates": [85.97588589057153, 27.86454769342874]}, "properties": {"rain_1h_mm": 1.4, "rain_3h_mm": 6.5, "rain_24h_mm": 15.099999999999998, "rain_72h_mm": 54.6, "current_rain_mm": 0.2, "latest_time": "2026-07-12T10:45:00", "rainfall_trigger_score": 0.3033333333333333}}, {"type": "Feature", "geometry": {"type": "Point", "coordinates": [85.53066953342864, 27.9492571885716]}, "properties": {"rain_1h_mm": 0.6, "rain_3h_mm": 0.8, "rain_24h_mm": 13.7, "rain_72h_mm": 54.6, "current_rain_mm": 0.1, "latest_time": "2026-07-12T10:45:00", "rainfall_trigger_score": 0.3033333333333333}}, {"type": "Feature", "geometry": {"type": "Point", "coordinates": [85.61971280485722, 27.9492571885716]}, "properties": {"rain_1h_mm": 1.6, "rain_3h_mm": 2.1, "rain_24h_mm": 10.0, "rain_72h_mm": 112.5, "current_rain_mm": 0.0, "latest_time": "2026-07-12T10:45:00", "rainfall_trigger_score": 0.625}}, {"type": "Feature", "geometry": {"type": "Point", "coordinates": [85.7087560762858, 27.9492571885716]}, "properties": {"rain_1h_mm": 0.4, "rain_3h_mm": 0.8, "rain_24h_mm": 7.4, "rain_72h_mm": 136.0, "current_rain_mm": 0.0, "latest_time": "2026-07-12T10:45:00", "rainfall_trigger_score": 0.7555555555555555}}, {"type": "Feature", "geometry": {"type": "Point", "coordinates": [85.79779934771437, 27.9492571885716]}, "properties": {"rain_1h_mm": 0.1, "rain_3h_mm": 0.7, "rain_24h_mm": 16.1, "rain_72h_mm": 119.1, "current_rain_mm": 0.0, "latest_time": "2026-07-12T10:45:00", "rainfall_trigger_score": 0.6616666666666666}}, {"type": "Feature", "geometry": {"type": "Point", "coordinates": [85.88684261914295, 27.9492571885716]}, "properties": {"rain_1h_mm": 2.2, "rain_3h_mm": 5.2, "rain_24h_mm": 10.5, "rain_72h_mm": 36.9, "current_rain_mm": 0.1, "latest_time": "2026-07-12T10:45:00", "rainfall_trigger_score": 0.205}}, {"type": "Feature", "geometry": {"type": "Point", "coordinates": [85.53066953342864, 28.033966683714457]}, "properties": {"rain_1h_mm": 0.6, "rain_3h_mm": 0.8, "rain_24h_mm": 13.7, "rain_72h_mm": 54.6, "current_rain_mm": 0.1, "latest_time": "2026-07-12T10:45:00", "rainfall_trigger_score": 0.3033333333333333}}, {"type": "Feature", "geometry": {"type": "Point", "coordinates": [85.61971280485722, 28.033966683714457]}, "properties": {"rain_1h_mm": 2.1, "rain_3h_mm": 2.6, "rain_24h_mm": 15.7, "rain_72h_mm": 76.60000000000001, "current_rain_mm": 0.0, "latest_time": "2026-07-12T10:45:00", "rainfall_trigger_score": 0.4255555555555556}}, {"type": "Feature", "geometry": {"type": "Point", "coordinates": [85.7087560762858, 28.033966683714457]}, "properties": {"rain_1h_mm": 0.3, "rain_3h_mm": 1.0, "rain_24h_mm": 17.6, "rain_72h_mm": 66.1, "current_rain_mm": 0.0, "latest_time": "2026-07-12T10:45:00", "rainfall_trigger_score": 0.3672222222222221}}, {"type": "Feature", "geometry": {"type": "Point", "coordinates": [85.79779934771437, 28.033966683714457]}, "properties": {"rain_1h_mm": 0.3, "rain_3h_mm": 0.5, "rain_24h_mm": 11.2, "rain_72h_mm": 85.9, "current_rain_mm": 0.0, "latest_time": "2026-07-12T10:45:00", "rainfall_trigger_score": 0.4772222222222222}}, {"type": "Feature", "geometry": {"type": "Point", "coordinates": [85.88684261914295, 28.033966683714457]}, "properties": {"rain_1h_mm": 0.6, "rain_3h_mm": 1.6, "rain_24h_mm": 7.9, "rain_72h_mm": 21.4, "current_rain_mm": 0.1, "latest_time": "2026-07-12T10:45:00", "rainfall_trigger_score": 0.1188888888888889}}, {"type": "Feature", "geometry": {"type": "Point", "coordinates": [85.53066953342864, 28.11867617885732]}, "properties": {"rain_1h_mm": 0.4, "rain_3h_mm": 1.2999999999999998, "rain_24h_mm": 21.5, "rain_72h_mm": 61.5, "current_rain_mm": 0.0, "latest_time": "2026-07-12T10:45:00", "rainfall_trigger_score": 0.3416666666666667}}, {"type": "Feature", "geometry": {"type": "Point", "coordinates": [85.61971280485722, 28.11867617885732]}, "properties": {"rain_1h_mm": 0.5, "rain_3h_mm": 1.4, "rain_24h_mm": 20.6, "rain_72h_mm": 46.0, "current_rain_mm": 0.0, "latest_time": "2026-07-12T10:45:00", "rainfall_trigger_score": 0.2555555555555555}}, {"type": "Feature", "geometry": {"type": "Point", "coordinates": [85.7087560762858, 28.11867617885732]}, "properties": {"rain_1h_mm": 0.6, "rain_3h_mm": 1.6, "rain_24h_mm": 15.5, "rain_72h_mm": 36.900000000000006, "current_rain_mm": 0.1, "latest_time": "2026-07-12T10:45:00", "rainfall_trigger_score": 0.205}}, {"type": "Feature", "geometry": {"type": "Point", "coordinates": [85.79779934771437, 28.11867617885732]}, "properties": {"rain_1h_mm": 0.6, "rain_3h_mm": 1.4, "rain_24h_mm": 10.1, "rain_72h_mm": 39.2, "current_rain_mm": 0.1, "latest_time": "2026-07-12T10:45:00", "rainfall_trigger_score": 0.2177777777777777}}, {"type": "Feature", "geometry": {"type": "Point", "coordinates": [85.73951107592136, 27.9148969304763]}, "properties": {"rain_1h_mm": 0.4, "rain_3h_mm": 0.8, "rain_24h_mm": 7.4, "rain_72h_mm": 136.0, "current_rain_mm": 0.0, "latest_time": "2026-07-12T10:45:00", "rainfall_trigger_score": 0.7555555555555555}}]}